[
    {
        "CCSDS_OMM_VERS": "3.0",
        "COMMENT": "GENERATED VIA SPACE-TRACK.ORG API",
        "CREATION_DATE": "2025-04-12T22:56:30",
        "ORIGINATOR": "18 SPCS",
        "OBJECT_NAME": "BEIDOU 3M18",
        "OBJECT_ID": "2018-093B",
        "CENTER_NAME": "EARTH",
        "REF_FRAME": "TEME",
        "TIME_SYSTEM": "UTC",
        "MEAN_ELEMENT_THEORY": "SGP4",
        "EPOCH": "2025-04-12T12:48:45.638784",
        "MEAN_MOTION": "1.86229997",
        "ECCENTRICITY": "0.00065100",
        "INCLINATION": "54.1868",
        "RA_OF_ASC_NODE": "196.8988",
        "ARG_OF_PERICENTER": "320.4756",
        "MEAN_ANOMALY": "39.5062",
        "EPHEMERIS_TYPE": "0",
        "CLASSIFICATION_TYPE": "U",
        "NORAD_CAT_ID": "43707",
        "ELEMENT_SET_NO": "999",
        "REV_AT_EPOCH": "4351",
        "BSTAR": "0.00000000000000",
        "MEAN_MOTION_DOT": "0.00000006",
        "MEAN_MOTION_DDOT": "0.0000000000000",
        "SEMIMAJOR_AXIS": "27906.289",
        "PERIOD": "773.237",
        "APOAPSIS": "21546.321",
        "PERIAPSIS": "21509.987",
        "OBJECT_TYPE": "PAYLOAD",
        "RCS_SIZE": "LARGE",
        "COUNTRY_CODE": "PRC",
        "LAUNCH_DATE": "2018-11-18",
        "SITE": "XSC",
        "DECAY_DATE": null,
        "FILE": "4700109",
        "GP_ID": "285464233",
        "TLE_LINE0": "0 BEIDOU 3M18",
        "TLE_LINE1": "1 43707U 18093B   25102.53386156  .00000006  00000-0  00000+0 0  9994",
        "TLE_LINE2": "2 43707  54.1868 196.8988 0006510 320.4756  39.5062  1.86229997 43514"
    }
]